0 ARIANE 5 DEB (SYLDA)
1 32390U 07063D   13281.35819615 -.00000034  00000-0 -19958-3 0  9585
2 32390 005.4621 133.6066 7163195 338.8647 351.1086 02.25903551 47707
0 ARIANE 5 DEB (SYLDA)
1 32390U 07063D   13283.51458242 -.00000005  00000-0  57458-5 0  9597
2 32390 005.4692 132.7647 7162768 340.5011 304.7927 02.25903436 47755
0 ARIANE 5 DEB (SYLDA)
1 32390U 07063D   13283.58540225 -.00000274  00000-0  00000+0 0  9602
2 32390 005.4660 132.9446 7164831 340.3659 002.3774 02.25903860 47761
0 ARIANE 5 DEB (SYLDA)
1 32390U 07063D   13285.81596199  .00000003  00000-0 -29918-3 0  9604
2 32390 005.4758 131.8747 7162328 342.2376 016.3874 02.25903717 47809
0 ARIANE 5 DEB (SYLDA)
1 32390U 07063D   13288.77416308 -.00000040  00000-0 -81476-3 0  9615
2 32390 005.4835 130.7371 7161768 344.4625 262.1428 02.25904294 47878
0 ARIANE 5 DEB (SYLDA)
1 32390U 07063D   13291.55764115 -.00000150  00000-0 -13804-2 0  9629
2 32390 005.4903 129.6710 7161411 346.5511 005.8080 02.25904426 47930
0 ARIANE 5 DEB (SYLDA)
1 32390U 07063D   13294.66035507 -.00000214  00000-0 -16737-2 0  9630
2 32390 005.4981 128.4835 7160984 348.8786 009.0914 02.25904064 48003
